{
  "norad_id": 53929,
  "name": "STARLINK-5018",
  "history": [
    {
      "epoch": "2026-03-28T15:54:12.845952Z",
      "apogee_km": 540.551191971469,
      "perigee_km": 538.9407088206162,
      "latitude_deg": -3.972439420516126e-05,
      "longitude_deg": 164.6895734880792,
      "height_km": 540.6267139724354,
      "semi_major_axis_km": 6917.882950396042,
      "eccentricity": 0.0001164,
      "inclination_deg": 53.2178,
      "raan_deg": 229.323,
      "arg_perigee_deg": 88.9141,
      "mean_anomaly_deg": 271.1984,
      "mean_motion_rev_day": 15.08839162
    }
  ]
}